STARLINK-36976          
1 68066U 26041AC  26070.41668981 -.01520040  00000+0 -57981-2 0  9992
2 68066  53.1582  53.3351 0000591  70.9507 279.4153 15.89771673  2653
STARLINK-36929          
1 68067U 26041AD  26070.41668981 -.01519062  00000+0 -58691-2 0  9994
2 68067  53.1582  53.3484 0000506  68.8024 275.2286 15.89521143  2653
STARLINK-36990          
1 68068U 26041AE  26070.41668981 -.01502575  00000+0 -56959-2 0  9991
2 68068  53.1582  53.3278 0000486  67.2374 286.6405 15.89856823  2658
STARLINK-36766          
1 68069U 26042A   26070.41668981 -.01354828  55656-3 -31212-2 0  9995
2 68069  53.1599 186.4459 0000751  85.9690 194.6277 15.96637109  2319
STARLINK-36823          
1 68070U 26042B   26070.41668981 -.01372502  57068-3 -31388-2 0  9999
2 68070  53.1595 186.4415 0000811  97.6563 185.0458 15.96773569  2311
STARLINK-36970          
1 68071U 26042C   26070.41668981 -.01369112  56955-3 -30891-2 0  9995
2 68071  53.1600 186.4330 0000970  74.5488 212.2528 15.97018054  2325
STARLINK-36972          
1 68072U 26042D   26070.41668981 -.01372189  57112-3 -31183-2 0  9995
2 68072  53.1600 186.4377 0000768  89.0542 195.4611 15.96888483  2329
STARLINK-37074          
1 68073U 26042E   26070.41668981 -.01375051  57483-3 -30810-2 0  9994
2 68073  53.1600 186.4289 0000765  81.9325 206.9646 15.97145678  2328
STARLINK-37045          
1 68074U 26042F   26070.41668981 -.01370490  57211-3 -30490-2 0  9990
2 68074  53.1599 186.4242 0000785  78.6812 212.4560 15.97273662  2323
STARLINK-37026          
1 68075U 26042G   26070.41668981 -.01356996  56260-3 -29980-2 0  9991
2 68075  53.1598 186.4193 0000811  81.9000 211.5412 15.97397632  2324
STARLINK-37023          
1 68076U 26042H   26070.41668981 -.01367656  57147-3 -29999-2 0  9992
2 68076  53.1597 186.4150 0000796  84.5470 211.0027 15.97529062  2320
STARLINK-37036          
1 68077U 26042J   26070.41668981 -.01365167  57028-3 -29749-2 0  9999
2 68077  53.1599 186.4112 0000937  76.5617 220.8442 15.97646556  2329
